H1 CPF 01  gfz 2022 07 24 00  7051 tandemx   
H2 1003001  6202 36605    2022 07 24 00 59 42 2022 07 29 00 00 42   120 1 1  0 0 0
H9
10 0 59785  33102.000000  0   -1337621.769   2663318.854   6199857.511
10 0 59785  33222.000000  0    -712649.169   2068448.176   6521113.898
10 0 59785  33342.000000  0     -86062.784   1426527.552   6727758.096
10 0 59785  33462.000000  0     530478.283    748837.819   6816181.827
10 0 59785  33582.000000  0    1125698.068     47478.615   6784840.892
10 0 59785  33702.000000  0    1688908.770   -664846.698   6634280.828
10 0 59785  33822.000000  0    2210202.141  -1375060.741   6367128.592
10 0 59785  33942.000000  0    2680624.107  -2069951.284   5988050.165
10 0 59785  34062.000000  0    3092330.994  -2736417.725   5503674.598
10 0 59785  34182.000000  0    3438723.157  -3361719.690   4922483.552
10 0 59785  34302.000000  0    3714554.275  -3933723.912   4254668.772
10 0 59785  34422.000000  0    3916014.775  -4441144.500   3511957.683
10 0 59785  34542.000000  0    4040785.961  -4873771.420   2707409.196
10 0 59785  34662.000000  0    4088064.391  -5222681.800   1855183.308
10 0 59785  34782.000000  0    4058555.308  -5480428.415    970287.825
10 0 59785  34902.000000  0    3954434.487  -5641200.107     68307.456
10 0 59785  35022.000000  0    3779280.764  -5700950.622   -834877.590
10 0 59785  35142.000000  0    3537979.730  -5657493.535  -1723380.853
10 0 59785  35262.000000  0    3236600.316  -5510557.814  -2581597.229
10 0 59785  35382.000000  0    2882249.852  -5261805.567  -3394483.403
10 0 59785  35502.000000  0    2482909.209  -4914810.271  -4147825.579
10 0 59785  35622.000000  0    2047253.280  -4474997.148  -4828487.416
10 0 59785  35742.000000  0    1584462.619  -3949548.069  -5424634.097
10 0 59785  35862.000000  0    1104031.392  -3347274.608  -5925929.587
10 0 59785  35982.000000  0     615574.131  -2678463.156  -6323705.485
10 0 59785  36102.000000  0     128635.383  -1954694.548  -6611099.922
10 0 59785  36222.000000  0    -347493.220  -1188641.324  -6783164.966
10 0 59785  36342.000000  0    -803945.250   -393846.939  -6836942.813
10 0 59785  36462.000000  0   -1232439.948    415509.695  -6771510.492
10 0 59785  36582.000000  0   -1625428.996   1224860.582  -6587993.210
10 0 59785  36702.000000  0   -1976226.227   2019504.297  -6289546.993
10 0 59785  36822.000000  0   -2279119.508   2784866.281  -5881310.955
10 0 59785  36942.000000  0   -2529464.112   3506762.697  -5370328.804
10 0 59785  37062.000000  0   -2723754.935   4171662.421  -4765438.803
10 0 59785  37182.000000  0   -2859677.478   4766943.818  -4077132.190
10 0 59785  37302.000000  0   -2936134.736   5281139.618  -3317379.833
10 0 59785  37422.000000  0   -2953249.129   5704163.906  -2499431.800
10 0 59785  37542.000000  0   -2912340.856   6027519.792  -1637592.241
10 0 59785  37662.000000  0   -2815880.631   6244480.094   -746968.915
10 0 59785  37782.000000  0   -2667418.393   6350233.690    156793.996
10 0 59785  37902.000000  0   -2471491.348   6341999.287   1057795.880
10 0 59785  38022.000000  0   -2233508.992   6219097.335   1940171.245
10 0 59785  38142.000000  0   -1959619.109   5982976.049   2788379.108
10 0 59785  38262.000000  0   -1656560.449   5637195.091   3587484.094
10 0 59785  38382.000000  0   -1331505.725   5187367.813   4323424.736
10 0 59785  38502.000000  0    -991898.531   4641062.969   4983264.736
10 0 59785  38622.000000  0    -645286.168   4007667.620   5555420.864
10 0 59785  38742.000000  0    -299155.529   3298217.350   6029862.896
10 0 59785  38862.000000  0      39225.243   2525195.513   6398285.392
10 0 59785  38982.000000  0     362956.622   1702307.585   6654246.500
10 0 59785  39102.000000  0     665646.322    844234.356   6793275.218
10 0 59785  39222.000000  0     941533.767    -33631.795   6812943.650
10 0 59785  39342.000000  0    1185598.563   -915461.729   6712907.169
10 0 59785  39462.000000  0    1393651.530  -1785274.755   6494910.911
10 0 59785  39582.000000  0    1562406.891  -2627227.751   6162761.628
10 0 59785  39702.000000  0    1689534.412  -3425905.058   5722265.591
10 0 59785  39822.000000  0    1773690.277  -4166603.608   5181131.851
10 0 59785  39942.000000  0    1814526.896  -4835606.742   4548842.436
10 0 59785  40062.000000  0    1812682.182  -5420444.596   3836492.944
10 0 59785  40182.000000  0    1769747.377  -5910136.650   3056600.857
10 0 59785  40302.000000  0    1688212.525  -6295406.288   2222884.859
10 0 59785  40422.000000  0    1571393.142  -6568864.588   1350022.050
10 0 59785  40542.000000  0    1423338.813  -6725160.157    453385.339
10 0 59785  40662.000000  0    1248725.197  -6761089.470   -451234.326
10 0 59785  40782.000000  0    1052731.485  -6675665.171  -1347916.703
10 0 59785  40902.000000  0     840907.627  -6470135.209  -2220902.645
10 0 59785  41022.000000  0     619035.267  -6147957.315  -3054877.294
10 0 59785  41142.000000  0     392987.013  -5714731.351  -3835242.936
10 0 59785  41262.000000  0     168585.647  -5178089.960  -4548375.984
10 0 59785  41382.000000  0     -48532.978  -4547550.678  -5181861.534
10 0 59785  41502.000000  0    -253049.455  -3834335.677  -5724702.702
10 0 59785  41622.000000  0    -440080.224  -3051162.252  -6167502.355
10 0 59785  41742.000000  0    -605284.308  -2212009.569  -6502614.631
10 0 59785  41862.000000  0    -744955.897  -1331866.419  -6724265.367
10 0 59785  41982.000000  0    -856101.237   -426465.175  -6828641.644
10 0 59785  42102.000000  0    -936498.454    487995.538  -6813950.241
10 0 59785  42222.000000  0    -984739.744   1395133.569  -6680443.882
10 0 59785  42342.000000  0   -1000255.585   2278669.078  -6430417.327
10 0 59785  42462.000000  0    -983320.427   3122709.338  -6068172.800
10 0 59785  42582.000000  0    -935039.862   3912031.032  -5599955.126
10 0 59785  42702.000000  0    -857319.258   4632353.961  -5033854.281
10 0 59785  42822.000000  0    -752814.435   5270602.578  -4379677.530
10 0 59785  42942.000000  0    -624865.296   5815150.650  -3648789.769
10 0 59785  43062.000000  0    -477412.920   6256042.471  -2853924.236
10 0 59785  43182.000000  0    -314901.669   6585186.563  -2008966.773
10 0 59785  43302.000000  0    -142168.647   6796517.008  -1128715.232
10 0 59785  43422.000000  0      35677.312   6886117.162   -228618.673
10 0 59785  43542.000000  0     213384.606   6852302.162    675498.783
10 0 59785  43662.000000  0     385692.182   6695657.359   1567724.305
10 0 59785  43782.000000  0     547462.970   6419029.723   2432346.081
10 0 59785  43902.000000  0     693813.565   6027472.949   3254137.731
10 0 59785  44022.000000  0     820237.908   5528150.286   4018632.931
10 0 59785  44142.000000  0     922723.972   4930197.685   4712385.139
10 0 59785  44262.000000  0     997855.741   4244544.142   5323209.959
10 0 59785  44382.000000  0    1042901.457   3483699.956   5840393.980
10 0 59785  44502.000000  0    1055886.819   2661521.206   6254878.532
10 0 59785  44622.000000  0    1035648.954   1792950.552   6559413.292
10 0 59785  44742.000000  0     981872.045    893740.896   6748677.360
10 0 59785  44862.000000  0     895103.807    -19832.636   6819365.759
10 0 59785  44982.000000  0     776752.400   -931265.922   6770243.816
10 0 59785  45102.000000  0     629063.516  -1824123.959   6602168.641
10 0 59785  45222.000000  0     455077.905  -2682337.050   6318075.347
10 0 59785  45342.000000  0     258570.101  -3490491.775   5922928.863
10 0 59785  45462.000000  0      43969.865  -4234109.008   5423639.409
10 0 59785  45582.000000  0    -183731.895  -4899905.191   4828948.091
10 0 59785  45702.000000  0    -419091.740  -5476036.564   4149282.252
10 0 59785  45822.000000  0    -656336.325  -5952320.816   3396577.006
10 0 59785  45942.000000  0    -889495.680  -6320426.761   2584066.719
10 0 59785  46062.000000  0   -1112542.725  -6574029.385   1726051.103
10 0 59785  46182.000000  0   -1319536.717  -6708927.787    837640.654
10 0 59785  46302.000000  0   -1504768.805  -6723121.064    -65517.500
10 0 59785  46422.000000  0   -1662902.150  -6616837.925   -967524.407
10 0 59785  46542.000000  0   -1789104.650  -6392521.725  -1852517.885
10 0 59785  46662.000000  0   -1879171.400  -6054771.655  -2704959.044
10 0 59785  46782.000000  0   -1929633.978  -5610241.362  -3509911.319
10 0 59785  46902.000000  0   -1937853.367  -5067497.042  -4253305.388
10 0 59785  47022.000000  0   -1902094.152  -4436840.199  -4922183.527
10 0 59785  47142.000000  0   -1821579.062  -3730101.322  -5504919.703
10 0 59785  47262.000000  0   -1696523.106  -2960409.609  -5991413.413
10 0 59785  47382.000000  0   -1528146.545  -2141943.006  -6373255.096
10 0 59785  47502.000000  0   -1318666.648  -1289663.675  -6643859.885
10 0 59785  47622.000000  0   -1071269.499   -419045.492  -6798569.733
10 0 59785  47742.000000  0    -790062.297    454202.795  -6834724.590
10 0 59785  47862.000000  0    -480005.591   1314414.079  -6751702.548
10 0 59785  47982.000000  0    -146827.953   2146236.507  -6550929.129
10 0 59785  48102.000000  0     203075.788   2934900.503  -6235856.575
10 0 59785  48222.000000  0     562763.831   3666477.802  -5811912.472
10 0 59785  48342.000000  0     924881.037   4328126.302  -5286414.743
10 0 59785  48462.000000  0    1281804.124   4908317.331  -4668456.978
10 0 59785  48582.000000  0    1625797.601   5397043.409  -3968762.571
10 0 59785  48702.000000  0    1949177.014   5785999.714  -3199507.642
10 0 59785  48822.000000  0    2244475.780   6068735.906  -2374116.592
10 0 59785  48942.000000  0    2504612.610   6240775.340  -1507031.686
10 0 59785  49062.000000  0    2723055.065   6299696.899   -613459.436
10 0 59785  49182.000000  0    2893974.715   6245175.695    290900.818
10 0 59785  49302.000000  0    3012389.790   6078981.401   1190139.287
10 0 59785  49422.000000  0    3074291.797   5804935.360   2068423.238
10 0 59785  49542.000000  0    3076752.701   5428826.555   2910284.217
99
